{
  "type": "FeatureCollection",
  "features": [
    {
      "type": "Feature",
      "properties": {
        "norad_id": 66393,
        "name": "STARLINK-35652",
        "group": "last-30-days",
        "lat": 25.40714675732648,
        "lon": -36.29747574893344,
        "alt_km": 417.6521340961908,
        "timestamp": "2025-12-04T13:51:59.225986+00:00",
        "meta_object_name": "STARLINK-35652",
        "meta_object_id": "2025-257P",
        "meta_epoch": "2025-12-04T05:58:58.538496",
        "meta_mean_motion": 15.48780318,
        "meta_eccentricity": 8.422e-05,
        "meta_inclination": 53.1593,
        "meta_ra_of_asc_node": 304.4102,
        "meta_arg_of_pericenter": 333.1937,
        "meta_mean_anomaly": 26.9028,
        "meta_ephemeris_type": 0,
        "meta_classification_type": "U",
        "meta_norad_cat_id": 66393,
        "meta_element_set_no": 999,
        "meta_rev_at_epoch": 506,
        "meta_bstar": -0.0053734908,
        "meta_mean_motion_dot": -0.00283392,
        "meta_mean_motion_ddot": 0,
        "tle_line1": "1 66393U 25257P   25338.24928864 -.00283392  00000+0 -53735-2 0  9995",
        "tle_line2": "2 66393  53.1593 304.4102 0000842 333.1937  26.9028 15.48780318  5065"
      },
      "geometry": {
        "type": "Point",
        "coordinates": [
          -36.29747574893344,
          25.40714675732648
        ]
      }
    },
    {
      "type": "Feature",
      "properties": {
        "norad_id": 66394,
        "name": "STARLINK-35672",
        "group": "last-30-days",
        "lat": 27.498190035344788,
        "lon": -34.19456679697177,
        "alt_km": 418.2676867640721,
        "timestamp": "2025-12-04T13:51:59.225999+00:00",
        "meta_object_name": "STARLINK-35672",
        "meta_object_id": "2025-257Q",
        "meta_epoch": "2025-12-04T07:31:02.646048",
        "meta_mean_motion": 15.48246125,
        "meta_eccentricity": 0.00015758,
        "meta_inclination": 53.1595,
        "meta_ra_of_asc_node": 304.098,
        "meta_arg_of_pericenter": 56.0118,
        "meta_mean_anomaly": 304.104,
        "meta_ephemeris_type": 0,
        "meta_classification_type": "U",
        "meta_norad_cat_id": 66394,
        "meta_element_set_no": 999,
        "meta_rev_at_epoch": 507,
        "meta_bstar": -0.0079567556,
        "meta_mean_motion_dot": -0.00405372,
        "meta_mean_motion_ddot": 0,
        "tle_line1": "1 66394U 25257Q   25338.31322507 -.00405372  00000+0 -79568-2 0  9992",
        "tle_line2": "2 66394  53.1595 304.0980 0001575  56.0118 304.1040 15.48246125  5073"
      },
      "geometry": {
        "type": "Point",
        "coordinates": [
          -34.19456679697177,
          27.498190035344788
        ]
      }
    },
    {
      "type": "Feature",
      "properties": {
        "norad_id": 66395,
        "name": "STARLINK-35681",
        "group": "last-30-days",
        "lat": 30.60084382561098,
        "lon": -30.851508161613758,
        "alt_km": 414.03641797709315,
        "timestamp": "2025-12-04T13:51:59.226010+00:00",
        "meta_object_name": "STARLINK-35681",
        "meta_object_id": "2025-257R",
        "meta_epoch": "2025-12-04T05:57:22.401216",
        "meta_mean_motion": 15.49376435,
        "meta_eccentricity": 0.0001238,
        "meta_inclination": 53.1595,
        "meta_ra_of_asc_node": 304.4037,
        "meta_arg_of_pericenter": 87.7747,
        "meta_mean_anomaly": 272.3404,
        "meta_ephemeris_type": 0,
        "meta_classification_type": "U",
        "meta_norad_cat_id": 66395,
        "meta_element_set_no": 999,
        "meta_rev_at_epoch": 499,
        "meta_bstar": 0.0021385153,
        "meta_mean_motion_dot": 0.00120626,
        "meta_mean_motion_ddot": 0,
        "tle_line1": "1 66395U 25257R   25338.24817594  .00120626  00000+0  21385-2 0  9998",
        "tle_line2": "2 66395  53.1595 304.4037 0001238  87.7747 272.3404 15.49376435  4995"
      },
      "geometry": {
        "type": "Point",
        "coordinates": [
          -30.851508161613758,
          30.60084382561098
        ]
      }
    },
    {
      "type": "Feature",
      "properties": {
        "norad_id": 66396,
        "name": "STARLINK-35669",
        "group": "last-30-days",
        "lat": 31.911061368871195,
        "lon": -29.346017895994628,
        "alt_km": 413.9983637678233,
        "timestamp": "2025-12-04T13:51:59.226021+00:00",
        "meta_object_name": "STARLINK-35669",
        "meta_object_id": "2025-257S",
        "meta_epoch": "2025-12-04T07:29:46.424832",
        "meta_mean_motion": 15.49349426,
        "meta_eccentricity": 0.0001461,
        "meta_inclination": 53.1592,
        "meta_ra_of_asc_node": 304.092,
        "meta_arg_of_pericenter": 96.8275,
        "meta_mean_anomaly": 263.29,
        "meta_ephemeris_type": 0,
        "meta_classification_type": "U",
        "meta_norad_cat_id": 66396,
        "meta_element_set_no": 999,
        "meta_rev_at_epoch": 507,
        "meta_bstar": 0.0015262589,
        "meta_mean_motion_dot": 0.00085492,
        "meta_mean_motion_ddot": 0,
        "tle_line1": "1 66396U 25257S   25338.31234288  .00085492  00000+0  15263-2 0  9999",
        "tle_line2": "2 66396  53.1592 304.0920 0001461  96.8275 263.2900 15.49349426  5075"
      },
      "geometry": {
        "type": "Point",
        "coordinates": [
          -29.346017895994628,
          31.911061368871195
        ]
      }
    },
    {
      "type": "Feature",
      "properties": {
        "norad_id": 66397,
        "name": "STARLINK-35510",
        "group": "last-30-days",
        "lat": 33.28276245627939,
        "lon": -27.69843409180075,
        "alt_km": 413.55756600829227,
        "timestamp": "2025-12-04T13:51:59.226031+00:00",
        "meta_object_name": "STARLINK-35510",
        "meta_object_id": "2025-257T",
        "meta_epoch": "2025-12-04T05:56:23.437536",
        "meta_mean_motion": 15.4935713,
        "meta_eccentricity": 0.00014032,
        "meta_inclination": 53.1592,
        "meta_ra_of_asc_node": 304.3984,
        "meta_arg_of_pericenter": 89.9163,
        "meta_mean_anomaly": 270.2007,
        "meta_ephemeris_type": 0,
        "meta_classification_type": "U",
        "meta_norad_cat_id": 66397,
        "meta_element_set_no": 999,
        "meta_rev_at_epoch": 506,
        "meta_bstar": 0.0022239664,
        "meta_mean_motion_dot": 0.00125457,
        "meta_mean_motion_ddot": 0,
        "tle_line1": "1 66397U 25257T   25338.24749349  .00125457  00000+0  22240-2 0  9990",
        "tle_line2": "2 66397  53.1592 304.3984 0001403  89.9163 270.2007 15.49357130  5060"
      },
      "geometry": {
        "type": "Point",
        "coordinates": [
          -27.69843409180075,
          33.28276245627939
        ]
      }
    },
    {
      "type": "Feature",
      "properties": {
        "norad_id": 66398,
        "name": "STARLINK-35642",
        "group": "last-30-days",
        "lat": 34.623034269108544,
        "lon": -26.010536563296977,
        "alt_km": 413.287466115632,
        "timestamp": "2025-12-04T13:51:59.226041+00:00",
        "meta_object_name": "STARLINK-35642",
        "meta_object_id": "2025-257U",
        "meta_epoch": "2025-12-04T07:28:46.935840",
        "meta_mean_motion": 15.49378769,
        "meta_eccentricity": 0.00012971,
        "meta_inclination": 53.1592,
        "meta_ra_of_asc_node": 304.0872,
        "meta_arg_of_pericenter": 87.9652,
        "meta_mean_anomaly": 272.1505,
        "meta_ephemeris_type": 0,
        "meta_classification_type": "U",
        "meta_norad_cat_id": 66398,
        "meta_element_set_no": 999,
        "meta_rev_at_epoch": 507,
        "meta_bstar": 0.0027170893,
        "meta_mean_motion_dot": 0.00154059,
        "meta_mean_motion_ddot": 0,
        "tle_line1": "1 66398U 25257U   25338.31165435  .00154059  00000+0  27171-2 0  9995",
        "tle_line2": "2 66398  53.1592 304.0872 0001297  87.9652 272.1505 15.49378769  5072"
      },
      "geometry": {
        "type": "Point",
        "coordinates": [
          -26.010536563296977,
          34.623034269108544
        ]
      }
    },
    {
      "type": "Feature",
      "properties": {
        "norad_id": 66399,
        "name": "STARLINK-35657",
        "group": "last-30-days",
        "lat": 35.95352063496414,
        "lon": -24.247623839999154,
        "alt_km": 413.0910561816354,
        "timestamp": "2025-12-04T13:51:59.226051+00:00",
        "meta_object_name": "STARLINK-35657",
        "meta_object_id": "2025-257V",
        "meta_epoch": "2025-12-04T05:55:23.577888",
        "meta_mean_motion": 15.49382223,
        "meta_eccentricity": 0.00012082,
        "meta_inclination": 53.1594,
        "meta_ra_of_asc_node": 304.3938,
        "meta_arg_of_pericenter": 88.8873,
        "meta_mean_anomaly": 271.2274,
        "meta_ephemeris_type": 0,
        "meta_classification_type": "U",
        "meta_norad_cat_id": 66399,
        "meta_element_set_no": 999,
        "meta_rev_at_epoch": 506,
        "meta_bstar": 0.0022649568,
        "meta_mean_motion_dot": 0.00127932,
        "meta_mean_motion_ddot": 0,
        "tle_line1": "1 66399U 25257V   25338.24680067  .00127932  00000+0  22650-2 0  9998",
        "tle_line2": "2 66399  53.1594 304.3938 0001208  88.8873 271.2274 15.49382223  5060"
      },
      "geometry": {
        "type": "Point",
        "coordinates": [
          -24.247623839999154,
          35.95352063496414
        ]
      }
    }
  ]
}